NORAD_CAT_ID,OBJECT_NAME,OBJECT_TYPE,EPOCH,MEAN_MOTION,ECCENTRICITY,INCLINATION,RA_OF_ASC_NODE,ARG_OF_PERICENTER,MEAN_ANOMALY,BSTAR,MEAN_MOTION_DOT,MEAN_MOTION_DDOT,TLE_LINE0,TLE_LINE1,TLE_LINE2,SEMIMAJOR_AXIS,PERIOD,APOGEE,PERIGEE,DECAYED
56462.0,STARLINK-6045,PAYLOAD,2023-08-08 08:08:14,15.69923366,0.0003159,70.0002,352.7482,272.6933,87.3901,1.1111e-05,1.123e-05,0.0,0 STARLINK-6045,1 56462U 23064Q   23220.33905443  .00001123  00000-0  11111-4 0  9994,2 56462  70.0002 352.7482 0003159 272.6933  87.3901 15.69923366 14457,6737.253,91.724,361.247,356.99,0.0
56462.0,STARLINK-6045,PAYLOAD,2023-08-08 15:46:59,15.69945443,0.0003041,70.0002,351.8538,275.3659,84.719,5.6609e-05,6.605e-05,0.0,0 STARLINK-6045,1 56462U 23064Q   23220.65762941  .00006605  00000-0  56609-4 0  9994,2 56462  70.0002 351.8538 0003041 275.3659  84.7190 15.69945443 14501,6737.19,91.723,361.104,357.006,0.0
56462.0,STARLINK-6045,PAYLOAD,2023-08-09 08:36:15,15.69925342,0.0003692,69.9998,349.8831,276.5733,83.5043,1.0505e-05,1.05e-05,0.0,0 STARLINK-6045,1 56462U 23064Q   23221.35851798  .00001050  00000-0  10505-4 0  9995,2 56462  69.9998 349.8831 0003692 276.5733  83.5043 15.69925342 14615,6737.248,91.724,361.6,356.625,0.0
56462.0,STARLINK-6045,PAYLOAD,2023-08-09 17:46:46,15.6993287,0.0003177,70.0015,348.8085,273.6634,86.4198,7.1529e-05,8.4e-05,0.0,0 STARLINK-6045,1 56462U 23064Q   23221.74081705  .00008400  00000-0  71529-4 0  9990,2 56462  70.0015 348.8085 0003177 273.6634  86.4198 15.69932870 14677,6737.226,91.724,361.231,356.951,0.0
56462.0,STARLINK-6045,PAYLOAD,2023-08-10 10:36:03,15.69929932,0.0003421,70.0001,346.8381,274.9095,85.171,5.0456e-05,5.86e-05,0.0,0 STARLINK-6045,1 56462U 23064Q   23222.44170204  .00005860  00000-0  50456-4 0  9994,2 56462  70.0001 346.8381 0003421 274.9095  85.1710 15.69929932 14789,6737.234,91.724,361.404,356.795,0.0
56462.0,STARLINK-6045,PAYLOAD,2023-08-11 01:53:34,15.69925627,0.0003412,70.0007,345.0463,273.4193,86.6612,2.9772e-05,3.369e-05,0.0,0 STARLINK-6045,1 56462U 23064Q   23223.07887068  .00003369  00000-0  29772-4 0  9996,2 56462  70.0007 345.0463 0003412 273.4193  86.6612 15.69925627 14885,6737.247,91.724,361.411,356.813,0.0
56462.0,STARLINK-6045,PAYLOAD,2023-08-12 10:00:22,15.69922839,0.0003088,70.0002,341.2836,268.3628,91.7214,1.3964e-05,1.467e-05,0.0,0 STARLINK-6045,1 56462U 23064Q   23224.41692474  .00001467  00000-0  13964-4 0  9993,2 56462  70.0002 341.2836 0003088 268.3628  91.7214 15.69922839 15098,6737.255,91.724,361.2,357.039,0.0
56462.0,STARLINK-6045,PAYLOAD,2023-08-13 16:35:24,15.69926067,0.0003154,70.0001,337.7011,265.4972,94.5863,1.1076e-05,1.119e-05,0.0,0 STARLINK-6045,1 56462U 23064Q   23225.69125773  .00001119  00000-0  11076-4 0  9993,2 56462  70.0001 337.7011 0003154 265.4972  94.5863 15.69926067 15296,6737.246,91.724,361.235,356.986,0.0
56462.0,STARLINK-6045,PAYLOAD,2023-08-14 20:06:56,15.69927794,0.0003421,70.0003,334.4761,271.1926,88.8877,2.149e-05,2.372e-05,0.0,0 STARLINK-6045,1 56462U 23064Q   23226.83815731  .00002372  00000-0  21490-4 0  9993,2 56462  70.0003 334.4761 0003421 271.1926  88.8877 15.69927794 15473,6737.241,91.724,361.41,356.801,0.0
56462.0,STARLINK-6045,PAYLOAD,2023-08-15 09:52:43,15.69920313,0.000349,70.0,332.8632,266.3133,93.7664,5.9184e-06,4.99e-06,0.0,0 STARLINK-6045,1 56462U 23064Q   23227.41161125  .00000499  00000-0  59184-5 0  9999,2 56462  70.0000 332.8632 0003490 266.3133  93.7664 15.69920313 15560,6737.262,91.724,361.478,356.776,0.0
56462.0,STARLINK-6045,PAYLOAD,2023-08-15 19:03:13,15.69932765,0.0003402,69.9981,331.79,272.3618,87.7189,7.8e-06,7.25e-06,0.0,0 STARLINK-6045,1 56462U 23064Q   23227.79390727  .00000725  00000-0  78000-5 0  9992,2 56462  69.9981 331.7900 0003402 272.3618  87.7189 15.69932765 15625,6737.226,91.724,361.383,356.799,0.0
56462.0,STARLINK-6045,PAYLOAD,2023-08-16 10:20:44,15.69925906,0.0003577,69.9997,329.9986,272.4172,87.6614,6.5612e-06,5.76e-06,0.0,0 STARLINK-6045,1 56462U 23064Q   23228.43107580  .00000576  00000-0  65612-5 0  9996,2 56462  69.9997 329.9986 0003577 272.4172  87.6614 15.69925906 15726,6737.246,91.724,361.521,356.701,0.0
56462.0,STARLINK-6045,PAYLOAD,2023-08-17 09:17:02,15.69918644,0.0003633,69.9977,327.3129,271.0929,88.985,1.889e-05,2.059e-05,0.0,0 STARLINK-6045,1 56462U 23064Q   23229.38683064  .00002059  00000-0  18890-4 0  9990,2 56462  69.9977 327.3129 0003633 271.0929  88.9850 15.69918644 15876,6737.267,91.724,361.579,356.684,0.0
56462.0,STARLINK-6045,PAYLOAD,2023-08-17 16:55:47,15.69928352,0.0003643,69.9965,326.4143,269.2719,90.806,7.461e-06,6.84e-06,0.0,0 STARLINK-6045,1 56462U 23064Q   23229.70540944  .00000684  00000-0  74610-5 0  9990,2 56462  69.9965 326.4143 0003643 269.2719  90.8060 15.69928352 15924,6737.239,91.724,361.558,356.65,0.0
56462.0,STARLINK-6045,PAYLOAD,2023-08-19 08:41:20,15.6993183,0.0002889,69.9982,321.7569,255.746,104.3415,-1.0319e-06,-3.37e-06,0.0,0 STARLINK-6045,1 56462U 23064Q   23231.36204527 -.00000337  00000-0 -10319-5 0  9992,2 56462  69.9982 321.7569 0002889 255.7460 104.3415 15.69931830 16186,6737.229,91.724,361.04,357.148,0.0
56462.0,STARLINK-6045,PAYLOAD,2023-08-19 16:20:06,15.69924197,0.0003488,69.9981,320.862,269.4181,90.6615,6.9175e-06,6.19e-06,0.0,0 STARLINK-6045,1 56462U 23064Q   23231.68063261  .00000619  00000-0  69175-5 0  9990,2 56462  69.9981 320.8620 0003488 269.4181  90.6615 15.69924197 16234,6737.251,91.724,361.466,356.766,0.0
56462.0,STARLINK-6045,PAYLOAD,2023-08-20 22:55:09,15.69917873,0.0003012,69.9981,317.2784,270.3947,89.6903,7.2611e-06,6.6e-06,0.0,0 STARLINK-6045,1 56462U 23064Q   23232.95497184  .00000660  00000-0  72611-5 0  9991,2 56462  69.9981 317.2784 0003012 270.3947  89.6903 15.69917873 16432,6737.269,91.725,361.163,357.105,0.0
56462.0,STARLINK-6045,PAYLOAD,2023-08-21 08:05:41,15.69875797,0.0002839,69.9979,316.2034,270.4597,89.6274,9.2668e-05,0.00010921,0.0,0 STARLINK-6045,1 56462U 23064Q   23233.33728114  .00010921  00000-0  92668-4 0  9998,2 56462  69.9979 316.2034 0002839 270.4597  89.6274 15.69875797 16499,6737.389,91.727,361.167,357.342,0.0
56462.0,STARLINK-6045,PAYLOAD,2023-08-21 15:44:25,15.69923917,0.0003075,69.9975,315.3076,269.8405,90.2438,1.0876e-05,1.095e-05,0.0,0 STARLINK-6045,1 56462U 23064Q   23233.65585152  .00001095  00000-0  10876-4 0  9999,2 56462  69.9975 315.3076 0003075 269.8405  90.2438 15.69923917 16548,6737.252,91.724,361.188,357.045,0.0
56462.0,STARLINK-6045,PAYLOAD,2023-08-23 04:26:29,15.69908541,0.0002886,69.9971,311.0072,269.0053,91.0813,3.4797e-05,3.97e-05,0.0,0 STARLINK-6045,1 56462U 23064Q   23235.18505794  .00003970  00000-0  34797-4 0  9995,2 56462  69.9971 311.0072 0002886 269.0053  91.0813 15.69908541 16781,6737.296,91.725,361.105,357.216,0.0
56462.0,STARLINK-6045,PAYLOAD,2023-08-24 07:58:00,15.69922748,0.0003103,69.9979,307.7833,269.2485,90.8355,6.0244e-06,5.12e-06,0.0,0 STARLINK-6045,1 56462U 23064Q   23236.33195559  .00000512  00000-0  60244-5 0  9993,2 56462  69.9979 307.7833 0003103 269.2485  90.8355 15.69922748 16615,6737.255,91.724,361.211,357.029,0.0
56462.0,STARLINK-6045,PAYLOAD,2023-08-25 08:26:02,15.69924502,0.0003093,69.9972,304.9158,270.1286,89.9555,7.3222e-06,6.68e-06,0.0,0 STARLINK-6045,1 56462U 23064Q   23237.35142115  .00000668  00000-0  73222-5 0  9998,2 56462  69.9972 304.9158 0003093 270.1286  89.9555 15.69924502 17123,6737.25,91.724,361.199,357.031,0.0
56462.0,STARLINK-6045,PAYLOAD,2023-08-25 13:01:18,15.6992476,0.0003094,69.9973,304.3786,270.443,89.6411,7.408e-06,6.78e-06,0.0,0 STARLINK-6045,1 56462U 23064Q   23237.54257114  .00000678  00000-0  74080-5 0  9999,2 56462  69.9973 304.3786 0003094 270.4430  89.6411 15.69924760 16808,6737.249,91.724,361.199,357.03,0.0
56462.0,STARLINK-6045,PAYLOAD,2023-08-25 14:33:03,15.69925476,0.0003102,69.9975,304.1997,270.7475,89.3365,8.0841e-06,7.59e-06,0.0,0 STARLINK-6045,1 56462U 23064Q   23237.60628722  .00000759  00000-0  80841-5 0  9995,2 56462  69.9975 304.1997 0003102 270.7475  89.3365 15.69925476 16815,6737.247,91.724,361.202,357.022,0.0
56462.0,STARLINK-6045,PAYLOAD,2023-08-26 11:57:34,15.69925561,0.0002696,69.9979,301.6922,264.1714,95.9175,1.3257e-05,1.382e-05,0.0,0 STARLINK-6045,1 56462U 23064Q   23238.49832011  .00001382  00000-0  13257-4 0  9990,2 56462  69.9979 301.6922 0002696 264.1714  95.9175 15.69925561 16951,6737.247,91.724,360.928,357.296,0.0
56462.0,STARLINK-6045,PAYLOAD,2023-08-27 03:15:06,15.69919064,0.0002265,69.9989,299.9021,257.5973,102.4969,7.5372e-06,6.94e-06,0.0,0 STARLINK-6045,1 56462U 23064Q   23239.13549224  .00000694  00000-0  75372-5 0  9995,2 56462  69.9989 299.9021 0002265 257.5973 102.4969 15.69919064 17403,6737.266,91.724,360.657,357.605,0.0
56462.0,STARLINK-6045,PAYLOAD,2023-08-27 04:46:51,15.69919227,0.0002444,69.9989,299.7236,265.4391,94.6526,8.9078e-06,8.59e-06,0.0,0 STARLINK-6045,1 56462U 23064Q   23239.19920878  .00000859  00000-0  89078-5 0  9990,2 56462  69.9989 299.7236 0002444 265.4391  94.6526 15.69919227 17064,6737.265,91.724,360.777,357.484,0.0
56462.0,STARLINK-6045,PAYLOAD,2023-08-27 13:57:22,15.69915714,0.0002757,69.9994,298.6496,267.0518,93.0363,6.1356e-06,5.25e-06,0.0,0 STARLINK-6045,1 56462U 23064Q   23239.58151380  .00000525  00000-0  61356-5 0  9996,2 56462  69.9994 298.6496 0002757 267.0518  93.0363 15.69915714 17476,6737.275,91.725,360.998,357.283,0.0
56462.0,STARLINK-6045,PAYLOAD,2023-08-28 06:46:38,15.69926619,0.0003115,69.9981,296.6786,266.0334,94.0506,2.5824e-06,9.8e-07,0.0,0 STARLINK-6045,1 56462U 23064Q   23240.28239128  .00000098  00000-0  25824-5 0  9997,2 56462  69.9981 296.6786 0003115 266.0334  94.0506 15.69926619 17584,6737.244,91.724,361.208,357.01,0.0
56462.0,STARLINK-6045,PAYLOAD,2023-08-28 12:53:39,15.69926161,0.000269,69.9983,295.9615,256.7037,103.3859,5.465e-06,4.45e-06,0.0,0 STARLINK-6045,1 56462U 23064Q   23240.53725730  .00000445  00000-0  54650-5 0  9999,2 56462  69.9983 295.9615 0002690 256.7037 103.3859 15.69926161 17275,6737.245,91.724,360.923,357.298,0.0
